{"type":"FeatureCollection","features":[{"type":"Feature","properties":{"code":"01","ring":1},"geometry":{"type":"Point","coordinates":[12.5655,55.6759]}},{"type":"Feature","properties":{"code":"21","ring":2},"geometry":{"type":"Point","coordinates":[12.5655,55.72536262000484]}},{"type":"Feature","properties":{"code":"22","ring":2},"geometry":{"type":"Point","coordinates":[12.62758245009709,55.71085970288905]}},{"type":"Feature","properties":{"code":"23","ring":2},"geometry":{"type":"Point","coordinates":[12.653219312470194,55.67586873007814]}},{"type":"Feature","properties":{"code":"24","ring":2},"geometry":{"type":"Point","coordinates":[12.627471538903388,55.64090902714909]}},{"type":"Feature","properties":{"code":"25","ring":2},"geometry":{"type":"Point","coordinates":[12.5655,55.62643737999514]}},{"type":"Feature","properties":{"code":"26","ring":2},"geometry":{"type":"Point","coordinates":[12.50352846109661,55.64090902714909]}},{"type":"Feature","properties":{"code":"27","ring":2},"geometry":{"type":"Point","coordinates":[12.477780687529807,55.67586873007814]}},{"type":"Feature","properties":{"code":"28","ring":2},"geometry":{"type":"Point","coordinates":[12.503417549902908,55.71085970288905]}},{"type":"Feature","properties":{"code":"31","ring":3},"geometry":{"type":"Point","coordinates":[12.5655,55.75459053182589]}},{"type":"Feature","properties":{"code":"32","ring":3},"geometry":{"type":"Point","coordinates":[12.66431976638889,55.73150297158021]}},{"type":"Feature","properties":{"code":"33","ring":3},"geometry":{"type":"Point","coordinates":[12.705053337802562,55.67582085614219]}},{"type":"Feature","properties":{"code":"34","ring":3},"geometry":{"type":"Point","coordinates":[12.664039051020868,55.62021788430583]}},{"type":"Feature","properties":{"code":"35","ring":3},"geometry":{"type":"Point","coordinates":[12.5655,55.597209468174086]}},{"type":"Feature","properties":{"code":"36","ring":3},"geometry":{"type":"Point","coordinates":[12.466960948979132,55.62021788430583]}},{"type":"Feature","properties":{"code":"37","ring":3},"geometry":{"type":"Point","coordinates":[12.425946662197438,55.67582085614219]}},{"type":"Feature","properties":{"code":"38","ring":3},"geometry":{"type":"Point","coordinates":[12.466680233611111,55.73150297158021]}},{"type":"Feature","properties":{"code":"41","ring":4},"geometry":{"type":"Point","coordinates":[12.5655,55.78606674455625]}},{"type":"Feature","properties":{"code":"42","ring":4},"geometry":{"type":"Point","coordinates":[12.703926493899964,55.753721912303206]}},{"type":"Feature","properties":{"code":"43","ring":4},"geometry":{"type":"Point","coordinates":[12.76087441995552,55.67574487821275]}},{"type":"Feature","properties":{"code":"44","ring":4},"geometry":{"type":"Point","coordinates":[12.703376291612607,55.597922964925594]}},{"type":"Feature","properties":{"code":"45","ring":4},"geometry":{"type":"Point","coordinates":[12.5655,55.565733255443746]}},{"type":"Feature","properties":{"code":"46","ring":4},"geometry":{"type":"Point","coordinates":[12.427623708387394,55.597922964925594]}},{"type":"Feature","properties":{"code":"47","ring":4},"geometry":{"type":"Point","coordinates":[12.37012558004448,55.67574487821275]}},{"type":"Feature","properties":{"code":"48","ring":4},"geometry":{"type":"Point","coordinates":[12.427073506100035,55.753721912303206]}},{"type":"Feature","properties":{"code":"51","ring":5},"geometry":{"type":"Point","coordinates":[12.5655,55.81979125819592]}},{"type":"Feature","properties":{"code":"52","ring":5},"geometry":{"type":"Point","coordinates":[12.74641236127739,55.777513770129225]}},{"type":"Feature","properties":{"code":"53","ring":5},"geometry":{"type":"Point","coordinates":[12.820682439638642,55.67563536950724]}},{"type":"Feature","properties":{"code":"54","ring":5},"geometry":{"type":"Point","coordinates":[12.745473740057399,55.57402159651446]}},{"type":"Feature","properties":{"code":"55","ring":5},"geometry":{"type":"Point","coordinates":[12.5655,55.53200874180406]}},{"type":"Feature","properties":{"code":"56","ring":5},"geometry":{"type":"Point","coordinates":[12.3855262599426,55.57402159651446]}},{"type":"Feature","properties":{"code":"57","ring":5},"geometry":{"type":"Point","coordinates":[12.310317560361357,55.67563536950724]}},{"type":"Feature","properties":{"code":"58","ring":5},"geometry":{"type":"Point","coordinates":[12.384587638722609,55.777513770129225]}},{"type":"Feature","properties":{"code":"61","ring":6},"geometry":{"type":"Point","coordinates":[12.5655,55.86026067456352]}},{"type":"Feature","properties":{"code":"62","ring":6},"geometry":{"type":"Point","coordinates":[12.797463905068673,55.80604463462997]}},{"type":"Feature","properties":{"code":"63","ring":6},"geometry":{"type":"Point","coordinates":[12.892451554779994,55.67546558325881]}},{"type":"Feature","properties":{"code":"64","ring":6},"geometry":{"type":"Point","coordinates":[12.79592306196839,55.54532094091201]}},{"type":"Feature","properties":{"code":"65","ring":6},"geometry":{"type":"Point","coordinates":[12.5655,55.491539325436456]}},{"type":"Feature","properties":{"code":"66","ring":6},"geometry":{"type":"Point","coordinates":[12.33507693803161,55.54532094091201]}},{"type":"Feature","properties":{"code":"67","ring":6},"geometry":{"type":"Point","coordinates":[12.238548445220006,55.67546558325881]}},{"type":"Feature","properties":{"code":"68","ring":6},"geometry":{"type":"Point","coordinates":[12.333536094931326,55.80604463462997]}},{"type":"Feature","properties":{"code":"71","ring":7},"geometry":{"type":"Point","coordinates":[12.5655,55.90522669274974]}},{"type":"Feature","properties":{"code":"72","ring":7},"geometry":{"type":"Point","coordinates":[12.854275643989745,55.837720756808146]}},{"type":"Feature","properties":{"code":"73","ring":7},"geometry":{"type":"Point","coordinates":[12.972194188662625,55.675227832256525]}},{"type":"Feature","properties":{"code":"74","ring":7},"geometry":{"type":"Point","coordinates":[12.851891505567732,55.513407056973485]}},{"type":"Feature","properties":{"code":"75","ring":7},"geometry":{"type":"Point","coordinates":[12.5655,55.44657330725023]}},{"type":"Feature","properties":{"code":"76","ring":7},"geometry":{"type":"Point","coordinates":[12.279108494432267,55.513407056973485]}},{"type":"Feature","properties":{"code":"77","ring":7},"geometry":{"type":"Point","coordinates":[12.158805811337373,55.675227832256525]}},{"type":"Feature","properties":{"code":"78","ring":7},"geometry":{"type":"Point","coordinates":[12.276724356010256,55.837720756808146]}},{"type":"Feature","properties":{"code":"81","ring":8},"geometry":{"type":"Point","coordinates":[12.5655,55.954689312754596]}},{"type":"Feature","properties":{"code":"82","ring":8},"geometry":{"type":"Point","coordinates":[12.916875517573668,55.872534207745225]}},{"type":"Feature","properties":{"code":"83","ring":8},"geometry":{"type":"Point","coordinates":[13.059909836673278,55.67490661262991]}},{"type":"Feature","properties":{"code":"84","ring":8},"geometry":{"type":"Point","coordinates":[12.913352011313886,55.478272364532636]}},{"type":"Feature","properties":{"code":"85","ring":8},"geometry":{"type":"Point","coordinates":[12.5655,55.39711068724539]}},{"type":"Feature","properties":{"code":"86","ring":8},"geometry":{"type":"Point","coordinates":[12.217647988686112,55.478272364532636]}},{"type":"Feature","properties":{"code":"87","ring":8},"geometry":{"type":"Point","coordinates":[12.071090163326721,55.67490661262991]}},{"type":"Feature","properties":{"code":"88","ring":8},"geometry":{"type":"Point","coordinates":[12.214124482426332,55.872534207745225]}},{"type":"Feature","properties":{"code":"91","ring":9},"geometry":{"type":"Point","coordinates":[12.5655,56.01764173821532]}},{"type":"Feature","properties":{"code":"92","ring":9},"geometry":{"type":"Point","coordinates":[12.996710522079674,55.91679620106524]}},{"type":"Feature","properties":{"code":"93","ring":9},"geometry":{"type":"Point","coordinates":[13.171545611233054,55.67440734569548]}},{"type":"Feature","properties":{"code":"94","ring":9},"geometry":{"type":"Point","coordinates":[12.991416085948993,55.433511053523695]}},{"type":"Feature","properties":{"code":"95","ring":9},"geometry":{"type":"Point","coordinates":[12.5655,55.334158261784665]}},{"type":"Feature","properties":{"code":"96","ring":9},"geometry":{"type":"Point","coordinates":[12.139583914051006,55.433511053523695]}},{"type":"Feature","properties":{"code":"97","ring":9},"geometry":{"type":"Point","coordinates":[11.959454388766947,55.67440734569548]}},{"type":"Feature","properties":{"code":"98","ring":9},"geometry":{"type":"Point","coordinates":[12.134289477920326,55.91679620106524]}}]}